KUIPER-00008            
1 63724U 25088A   25204.91668981  .00005992  00000+0  44128-3 0  9992
2 63724  51.8871  50.0296 0011741  55.2057 129.6887 15.04555742 13737
KUIPER-00009            
1 63725U 25088B   25204.91668981  .00034829  00000+0  15771-2 0  9995
2 63725  51.8760  44.4320 0012194  79.7101   1.0855 15.20498706 13815
KUIPER-00010            
1 63726U 25088C   25203.97663440  .00013762  00000+0  39764-3 0  9998
2 63726  51.8644  48.1036 0009844  62.9156 297.2833 15.35892946 13303
KUIPER-00011            
1 63727U 25088D   25204.84834973  .00015068  00000+0  44011-3 0  9999
2 63727  51.8576  44.1337 0011496  72.8083 287.4160 15.35455599 13575
KUIPER-00012            
1 63728U 25088E   25204.26109720  .00014182  00000+0  41388-3 0  9991
2 63728  51.8568  46.9383 0011640  72.1714 288.0540 15.35533984 13432
KUIPER-00013            
1 63729U 25088F   25204.91668981  .00026872  00000+0  12983-2 0  9990
2 63729  51.8757  45.0010 0007642  51.1109 109.5139 15.18427222 13611
KUIPER-00014            
1 63730U 25088G   25204.91668981 -.00573366  00000+0 -30047-1 0  9999
2 63730  51.8764  45.9086 0009888  70.8836  37.8896 15.17558868 13413
KUIPER-00015            
1 63731U 25088H   25204.81827258 -.00121966  00000+0 -10824-1 0  9999
2 63731  51.8894  54.1582 0010461  54.6551 305.5395 14.96312520 13759
